OBJECT_NAME,OBJECT_ID,EPOCH,MEAN_MOTION,ECCENTRICITY,INCLINATION,RA_OF_ASC_NODE,ARG_OF_PERICENTER,MEAN_ANOMALY,EPHEMERIS_TYPE,CLASSIFICATION_TYPE,NORAD_CAT_ID,ELEMENT_SET_NO,REV_AT_EPOCH,BSTAR,MEAN_MOTION_DOT,MEAN_MOTION_DDOT
STARLINK-37531,2026-110N,2026-06-06T04:00:03.998880,15.74977023,.0001379,97.2840,353.4448,89.1479,172.8252,0,U,69136,999,388,-.56769E-2,-.767597E-2,0
STARLINK-37662,2026-110P,2026-06-06T04:00:03.998880,15.69436167,.0001556,97.2844,353.4343,80.2361,155.3041,0,U,69137,999,388,-.85544E-2,-.899736E-2,0
STARLINK-37658,2026-110Q,2026-06-06T04:00:03.998880,15.62601734,.0002127,97.2853,353.4003,88.3939,71.2270,0,U,69138,999,388,-.33509E-1,-.2590638E-1,0
STARLINK-37659,2026-110R,2026-06-06T04:00:03.998880,15.60667102,.0002156,97.2853,353.3902,79.6670,55.0894,0,U,69139,999,388,-.35508E-1,-.2551956E-1,0
STARLINK-37653,2026-110S,2026-06-06T04:00:03.998880,15.59293446,.0002098,97.2852,353.3890,85.7147,45.7978,0,U,69140,999,388,-.383E-1,-.2602754E-1,0
STARLINK-37654,2026-110T,2026-06-06T04:00:03.998880,15.70281160,.0001864,97.2844,353.4426,99.6861,158.5010,0,U,69141,999,388,-.2433E-1,-.2571131E-1,0
STARLINK-37655,2026-110U,2026-06-06T04:00:03.998880,15.71883942,.000137,97.2841,353.4489,96.8732,173.9676,0,U,69142,999,388,-.67345E-2,-.794805E-2,0
STARLINK-37636,2026-110V,2026-06-05T20:37:42.636000,15.80941715,.0001315,97.2843,353.1400,94.7216,265.4202,0,U,69143,999,385,.14278E-2,.284063E-2,0
STARLINK-37638,2026-110W,2026-06-05T20:36:36.812160,15.80913074,.000144,97.2844,353.1411,81.2606,278.8825,0,U,69144,999,385,.99107E-3,.194857E-2,0
STARLINK-37657,2026-110X,2026-06-06T04:00:03.998880,15.69736224,.0001761,97.2845,353.4479,99.6815,169.6540,0,U,69145,999,393,-.25412E-1,-.2617557E-1,0
STARLINK-37639,2026-110Y,2026-06-05T20:34:27.906816,15.80900757,.0001322,97.2849,353.1434,81.7527,278.3891,0,U,69146,999,385,.95768E-3,.188032E-2,0
STARLINK-37661,2026-110Z,2026-06-06T04:00:03.998880,15.63411055,.0002081,97.2850,353.4273,91.7949,129.9428,0,U,69147,999,393,-.32867E-1,-.2618786E-1,0
STARLINK-37395,2026-111A,2026-06-06T00:00:02.998944,15.80870074,.0001111,53.1583,207.7263,94.0362,167.4818,0,U,69148,999,374,-.11254E-3,-.22848E-3,0
STARLINK-37346,2026-111B,2026-06-06T00:00:02.998944,15.80914838,.0001052,53.1584,207.7140,91.7880,175.6728,0,U,69149,999,374,-.59498E-3,-.116779E-2,0
STARLINK-37332,2026-111C,2026-06-06T04:00:03.998880,15.80851795,.0001273,53.1591,206.8621,83.6837,60.7249,0,U,69150,999,377,-.15563E-3,-.31275E-3,0
STARLINK-37297,2026-111D,2026-06-06T00:00:02.998944,15.80906430,.0001013,53.1585,207.7112,86.9015,181.7897,0,U,69151,999,374,-.57449E-3,-.11279E-2,0
STARLINK-37317,2026-111E,2026-06-06T00:00:02.998944,15.80900230,.0001083,53.1585,207.6880,110.1289,169.7390,0,U,69152,999,374,-.40488E-3,-.79973E-3,0
STARLINK-37374,2026-111F,2026-06-06T00:00:02.998944,15.80912828,.0001006,53.1586,207.6704,109.8238,178.3045,0,U,69153,999,374,-.46117E-3,-.90932E-3,0
STARLINK-37235,2026-111G,2026-06-06T04:00:03.998880,15.78085193,.0001201,53.1595,206.8482,89.8902,61.1372,0,U,69154,999,377,-.16458E-1,-.245588E-1,0
STARLINK-37329,2026-111H,2026-06-06T00:00:02.998944,15.80935327,.0001026,53.1587,207.6932,79.9266,197.3752,0,U,69155,999,374,-.65875E-3,-.129159E-2,0
STARLINK-37345,2026-111J,2026-06-06T00:00:02.998944,15.80896776,.000118,53.1587,207.6764,76.6924,208.8582,0,U,69156,999,374,-.2625E-3,-.52253E-3,0
STARLINK-37353,2026-111K,2026-06-06T00:00:02.998944,15.80918928,.0000897,53.1588,207.6735,67.5572,219.2184,0,U,69157,999,374,-.48771E-3,-.96094E-3,0
STARLINK-37363,2026-111L,2026-06-06T00:00:02.998944,15.80918326,.0001223,53.1588,207.6491,91.2900,207.3029,0,U,69158,999,374,-.47027E-3,-.9272E-3,0
STARLINK-37343,2026-111M,2026-06-06T00:00:02.998944,15.81379560,.0000412,53.1591,207.6403,105.8764,196.8921,0,U,69159,999,374,-.96674E-2,-.1692729E-1,0
STARLINK-37328,2026-111N,2026-06-06T00:00:02.998944,15.80934791,.0001111,53.1589,207.6476,105.8444,193.4651,0,U,69160,999,374,-.63057E-3,-.12374E-2,0
STARLINK-37311,2026-111P,2026-06-06T00:00:02.998944,15.81269593,.0000397,53.1589,207.6346,100.6378,204.8054,0,U,69161,999,374,-.46448E-2,-.847642E-2,0
STARLINK-36286,2026-111Q,2026-06-06T00:00:02.998944,15.80983289,.0001009,53.1588,207.6257,82.0248,227.7690,0,U,69162,999,374,-.13222E-2,-.255395E-2,0
STARLINK-37196,2026-111R,2026-06-06T04:00:03.998880,15.78056115,.0001154,53.1595,206.8114,101.7684,66.7344,0,U,69163,999,377,-.34375E-3,-.59938E-3,0
STARLINK-36288,2026-111S,2026-06-06T04:00:03.998880,15.78103696,.00014,53.1596,206.8016,106.0999,66.9991,0,U,69164,999,377,-.82616E-3,-.14207E-2,0
STARLINK-37445,2026-111T,2026-06-06T00:00:02.998944,15.80665220,.0000471,53.1590,207.6020,73.9976,247.2143,0,U,69165,999,374,-.1428E-1,-.2407337E-1,0
