[ {"name": "STARLINK-37531", "line1": "1 69136U 26110N   26157.16671295 -.00767597  00000+0 -56769-2 0  9990", "line2": "2 69136  97.2840 353.4448 0001379  89.1479 172.8252 15.74977023  3887"}, {"name": "STARLINK-37662", "line1": "1 69137U 26110P   26157.16671295 -.00899736  00000+0 -85544-2 0  9995", "line2": "2 69137  97.2844 353.4343 0001556  80.2361 155.3041 15.69436167  3880"}, {"name": "STARLINK-37658", "line1": "1 69138U 26110Q   26157.16671295 -.02590638  00000+0 -33509-1 0  9990", "line2": "2 69138  97.2853 353.4003 0002127  88.3939  71.2270 15.62601734  3886"}, {"name": "STARLINK-37659", "line1": "1 69139U 26110R   26157.16671295 -.02551956  00000+0 -35508-1 0  9992", "line2": "2 69139  97.2853 353.3902 0002156  79.6670  55.0894 15.60667102  3882"}, {"name": "STARLINK-37653", "line1": "1 69140U 26110S   26157.16671295 -.02602754  00000+0 -38300-1 0  9990", "line2": "2 69140  97.2852 353.3890 0002098  85.7147  45.7978 15.59293446  3884"}, {"name": "STARLINK-37654", "line1": "1 69141U 26110T   26157.16671295 -.02571131  00000+0 -24330-1 0  9993", "line2": "2 69141  97.2844 353.4426 0001864  99.6861 158.5010 15.70281160  3882"}, {"name": "STARLINK-37655", "line1": "1 69142U 26110U   26157.16671295 -.00794805  00000+0 -67345-2 0  9991", "line2": "2 69142  97.2841 353.4489 0001370  96.8732 173.9676 15.71883942  3883"}, {"name": "STARLINK-37636", "line1": "1 69143U 26110V   26156.85952125  .00284063  00000+0  14278-2 0  9996", "line2": "2 69143  97.2843 353.1400 0001315  94.7216 265.4202 15.80941715  3851"}, {"name": "STARLINK-37638", "line1": "1 69144U 26110W   26156.85875940  .00194857  00000+0  99107-3 0  9992", "line2": "2 69144  97.2844 353.1411 0001440  81.2606 278.8825 15.80913074  3854"}, {"name": "STARLINK-37657", "line1": "1 69145U 26110X   26157.16671295 -.02617557  00000+0 -25412-1 0  9992", "line2": "2 69145  97.2845 353.4479 0001761  99.6815 169.6540 15.69736224  3931"}, {"name": "STARLINK-37639", "line1": "1 69146U 26110Y   26156.85726744  .00188032  00000+0  95768-3 0  9998", "line2": "2 69146  97.2849 353.1434 0001322  81.7527 278.3891 15.80900757  3854"}, {"name": "STARLINK-37661", "line1": "1 69147U 26110Z   26157.16671295 -.02618786  00000+0 -32867-1 0  9991", "line2": "2 69147  97.2850 353.4273 0002081  91.7949 129.9428 15.63411055  3938"}, {"name": "STARLINK-37395", "line1": "1 69148U 26111A   26157.00003471 -.00022848  00000+0 -11254-3 0  9996", "line2": "2 69148  53.1583 207.7263 0001111  94.0362 167.4818 15.80870074  3749"}, {"name": "STARLINK-37346", "line1": "1 69149U 26111B   26157.00003471 -.00116779  00000+0 -59498-3 0  9996", "line2": "2 69149  53.1584 207.7140 0001052  91.7880 175.6728 15.80914838  3746"}, {"name": "STARLINK-37332", "line1": "1 69150U 26111C   26157.16671295 -.00031275  00000+0 -15563-3 0  9992", "line2": "2 69150  53.1591 206.8621 0001273  83.6837  60.7249 15.80851795  3774"}, {"name": "STARLINK-37297", "line1": "1 69151U 26111D   26157.00003471 -.00112790  00000+0 -57449-3 0  9992", "line2": "2 69151  53.1585 207.7112 0001013  86.9015 181.7897 15.80906430  3746"}, {"name": "STARLINK-37317", "line1": "1 69152U 26111E   26157.00003471 -.00079973  00000+0 -40488-3 0  9993", "line2": "2 69152  53.1585 207.6880 0001083 110.1289 169.7390 15.80900230  3744"}, {"name": "STARLINK-37374", "line1": "1 69153U 26111F   26157.00003471 -.00090932  00000+0 -46117-3 0  9997", "line2": "2 69153  53.1586 207.6704 0001006 109.8238 178.3045 15.80912828  3744"}, {"name": "STARLINK-37235", "line1": "1 69154U 26111G   26157.16671295 -.02455880  00000+0 -16458-1 0  9992", "line2": "2 69154  53.1595 206.8482 0001201  89.8902  61.1372 15.78085193  3779"}, {"name": "STARLINK-37329", "line1": "1 69155U 26111H   26157.00003471 -.00129159  00000+0 -65875-3 0  9995", "line2": "2 69155  53.1587 207.6932 0001026  79.9266 197.3752 15.80935327  3745"}, {"name": "STARLINK-37345", "line1": "1 69156U 26111J   26157.00003471 -.00052253  00000+0 -26250-3 0  9990", "line2": "2 69156  53.1587 207.6764 0001180  76.6924 208.8582 15.80896776  3748"}, {"name": "STARLINK-37353", "line1": "1 69157U 26111K   26157.00003471 -.00096094  00000+0 -48771-3 0  9994", "line2": "2 69157  53.1588 207.6735 0000897  67.5572 219.2184 15.80918928  3748"}, {"name": "STARLINK-37363", "line1": "1 69158U 26111L   26157.00003471 -.00092720  00000+0 -47027-3 0  9990", "line2": "2 69158  53.1588 207.6491 0001223  91.2900 207.3029 15.80918326  3749"}, {"name": "STARLINK-37343", "line1": "1 69159U 26111M   26157.00003471 -.01692729  00000+0 -96674-2 0  9998", "line2": "2 69159  53.1591 207.6403 0000412 105.8764 196.8921 15.81379560  3741"}, {"name": "STARLINK-37328", "line1": "1 69160U 26111N   26157.00003471 -.00123740  00000+0 -63057-3 0  9991", "line2": "2 69160  53.1589 207.6476 0001111 105.8444 193.4651 15.80934791  3747"}, {"name": "STARLINK-37311", "line1": "1 69161U 26111P   26157.00003471 -.00847642  00000+0 -46448-2 0  9990", "line2": "2 69161  53.1589 207.6346 0000397 100.6378 204.8054 15.81269593  3744"}, {"name": "STARLINK-36286", "line1": "1 69162U 26111Q   26157.00003471 -.00255395  00000+0 -13222-2 0  9993", "line2": "2 69162  53.1588 207.6257 0001009  82.0248 227.7690 15.80983289  3749"}, {"name": "STARLINK-37196", "line1": "1 69163U 26111R   26157.16671295 -.00059938  00000+0 -34375-3 0  9994", "line2": "2 69163  53.1595 206.8114 0001154 101.7684  66.7344 15.78056115  3771"}, {"name": "STARLINK-36288", "line1": "1 69164U 26111S   26157.16671295 -.00142070  00000+0 -82616-3 0  9996", "line2": "2 69164  53.1596 206.8016 0001400 106.0999  66.9991 15.78103696  3772"}, {"name": "STARLINK-37445", "line1": "1 69165U 26111T   26157.00003471 -.02407337  00000+0 -14280-1 0  9997", "line2": "2 69165  53.1590 207.6020 0000471  73.9976 247.2143 15.80665220  3744"}]